[{"OBJECT_NAME":"ONEWEB-0393","OBJECT_ID":"2021-132E","EPOCH":"2026-03-09T21:08:46.449888","MEAN_MOTION":13.17649696,"ECCENTRICITY":0.00018232,"INCLINATION":87.9161,"RA_OF_ASC_NODE":25.5814,"ARG_OF_PERICENTER":73.9897,"MEAN_ANOMALY":286.1436,"EPHEMERIS_TYPE":0,"CLASSIFICATION_TYPE":"U","NORAD_CAT_ID":50473,"ELEMENT_SET_NO":999,"REV_AT_EPOCH":20503,"BSTAR":-0.00030494445,"MEAN_MOTION_DOT":-1.06e-6,"MEAN_MOTION_DDOT":0},{"OBJECT_NAME":"THORAD DELTA 1 DEB","OBJECT_ID":"1974-089R","EPOCH":"2026-03-09T21:46:46.773120","MEAN_MOTION":12.81299548,"ECCENTRICITY":0.03367231,"INCLINATION":101.7694,"RA_OF_ASC_NODE":180.6081,"ARG_OF_PERICENTER":247.5756,"MEAN_ANOMALY":234.857,"EPHEMERIS_TYPE":0,"CLASSIFICATION_TYPE":"U","NORAD_CAT_ID":8151,"ELEMENT_SET_NO":999,"REV_AT_EPOCH":39607,"BSTAR":0.0010135812,"MEAN_MOTION_DOT":2.48e-6,"MEAN_MOTION_DDOT":0}]
